QIANFAN-25              
1 61558U 24185G   25364.58707913  .00000664  00000+0  39750-3 0  9997
2 61558  88.9793  76.1733 0007607 249.7134 110.3230 14.05924669 72014
QIANFAN-26              
1 61559U 24185H   25364.61379552  .00000306  00000+0  29315-3 0  9995
2 61559  88.9803  77.8254 0004101 333.7855  26.3103 13.77823998 71131
QIANFAN-27              
1 61560U 24185J   25364.62531899  .00000984  00000+0  39617-3 0  9990
2 61560  88.9795  74.8500 0006464 216.1218 143.9541 14.27357938 72714
QIANFAN-28              
1 61561U 24185K   25364.59862817  .00001424  00000+0  56776-3 0  9999
2 61561  88.9813  74.8577 0005997 213.9452 146.1359 14.28074950 72729
QIANFAN-29              
1 61562U 24185L   25364.58808163  .00000234  00000+0  34433-3 0  9997
2 61562  88.9781  79.4700 0009675  10.5810 349.5543 13.51018687 70204
QIANFAN-30              
1 61563U 24185M   25364.57645661  .00000237  00000+0  35489-3 0  9994
2 61563  88.9802  79.0035 0006867 358.8438   1.2696 13.49993567 70476
QIANFAN-31              
1 61564U 24185N   25364.58752213  .00000273  00000+0  36106-3 0  9995
2 61564  88.9784  78.7760 0006018 353.5912   6.5165 13.57974364 70588
QIANFAN-32              
1 61565U 24185P   25364.60912834  .00000242  00000+0  35820-3 0  9994
2 61565  88.9844  79.1396 0009573  23.9593 336.2002 13.50741357 70454
